{
  "type": "FeatureCollection",
  "features": [
    {
      "type": "Feature",
      "properties": {
        "norad_id": 66612,
        "name": "STARLINK-36039",
        "group": "last-30-days",
        "lat": 37.98614055382617,
        "lon": -109.67711349220599,
        "alt_km": 422.4877701588857,
        "timestamp": "2025-12-12T14:39:16.771972+00:00",
        "meta_object_name": "STARLINK-36039",
        "meta_object_id": "2025-270AA",
        "meta_epoch": "2025-12-12T06:00:00.999648",
        "meta_mean_motion": 15.48039997,
        "meta_eccentricity": 0.00014044,
        "meta_inclination": 42.9999,
        "meta_ra_of_asc_node": 195.4914,
        "meta_arg_of_pericenter": 259.5845,
        "meta_mean_anomaly": 314.0659,
        "meta_ephemeris_type": 0,
        "meta_classification_type": "U",
        "meta_norad_cat_id": 66612,
        "meta_element_set_no": 999,
        "meta_rev_at_epoch": 432,
        "meta_bstar": -0.044604589,
        "meta_mean_motion_dot": -0.02120126,
        "meta_mean_motion_ddot": 0,
        "tle_line1": "1 66612U 25270AA  25346.25001157 -.02120126  00000+0 -44605-1 0  9993",
        "tle_line2": "2 66612  42.9999 195.4914 0001404 259.5845 314.0659 15.48039997  4327"
      },
      "geometry": {
        "type": "Point",
        "coordinates": [
          -109.67711349220599,
          37.98614055382617
        ]
      }
    },
    {
      "type": "Feature",
      "properties": {
        "norad_id": 66613,
        "name": "STARLINK-36037",
        "group": "last-30-days",
        "lat": 40.64635890944049,
        "lon": -99.51089343477665,
        "alt_km": 413.6442038180039,
        "timestamp": "2025-12-12T14:39:16.771982+00:00",
        "meta_object_name": "STARLINK-36037",
        "meta_object_id": "2025-270AB",
        "meta_epoch": "2025-12-12T06:00:00.999648",
        "meta_mean_motion": 15.50916576,
        "meta_eccentricity": 0.00016393,
        "meta_inclination": 42.9999,
        "meta_ra_of_asc_node": 195.4806,
        "meta_arg_of_pericenter": 264.4289,
        "meta_mean_anomaly": 313.7378,
        "meta_ephemeris_type": 0,
        "meta_classification_type": "U",
        "meta_norad_cat_id": 66613,
        "meta_element_set_no": 999,
        "meta_rev_at_epoch": 432,
        "meta_bstar": -0.03880212,
        "meta_mean_motion_dot": -0.02052151,
        "meta_mean_motion_ddot": 0,
        "tle_line1": "1 66613U 25270AB  25346.25001157 -.02052151  00000+0 -38802-1 0  9998",
        "tle_line2": "2 66613  42.9999 195.4806 0001639 264.4289 313.7378 15.50916576  4329"
      },
      "geometry": {
        "type": "Point",
        "coordinates": [
          -99.51089343477665,
          40.64635890944049
        ]
      }
    },
    {
      "type": "Feature",
      "properties": {
        "norad_id": 66614,
        "name": "STARLINK-36040",
        "group": "last-30-days",
        "lat": 41.69536153587763,
        "lon": -93.70290044260396,
        "alt_km": 409.6973584071038,
        "timestamp": "2025-12-12T14:39:16.771993+00:00",
        "meta_object_name": "STARLINK-36040",
        "meta_object_id": "2025-270AC",
        "meta_epoch": "2025-12-12T06:00:00.999648",
        "meta_mean_motion": 15.50623434,
        "meta_eccentricity": 0.00019334,
        "meta_inclination": 42.9999,
        "meta_ra_of_asc_node": 195.471,
        "meta_arg_of_pericenter": 276.4193,
        "meta_mean_anomaly": 305.6103,
        "meta_ephemeris_type": 0,
        "meta_classification_type": "U",
        "meta_norad_cat_id": 66614,
        "meta_element_set_no": 999,
        "meta_rev_at_epoch": 416,
        "meta_bstar": -0.0015562515,
        "meta_mean_motion_dot": -0.00090737,
        "meta_mean_motion_ddot": 0,
        "tle_line1": "1 66614U 25270AC  25346.25001157 -.00090737  00000+0 -15563-2 0  9999",
        "tle_line2": "2 66614  42.9999 195.4710 0001933 276.4193 305.6103 15.50623434  4164"
      },
      "geometry": {
        "type": "Point",
        "coordinates": [
          -93.70290044260396,
          41.69536153587763
        ]
      }
    },
    {
      "type": "Feature",
      "properties": {
        "norad_id": 66615,
        "name": "STARLINK-35988",
        "group": "last-30-days",
        "lat": 41.278569464108564,
        "lon": -96.23196897589483,
        "alt_km": 409.68977276605347,
        "timestamp": "2025-12-12T14:39:16.772003+00:00",
        "meta_object_name": "STARLINK-35988",
        "meta_object_id": "2025-270AD",
        "meta_epoch": "2025-12-12T06:00:00.999648",
        "meta_mean_motion": 15.50577084,
        "meta_eccentricity": 0.00017192,
        "meta_inclination": 42.9998,
        "meta_ra_of_asc_node": 195.4758,
        "meta_arg_of_pericenter": 261.4291,
        "meta_mean_anomaly": 318.6959,
        "meta_ephemeris_type": 0,
        "meta_classification_type": "U",
        "meta_norad_cat_id": 66615,
        "meta_element_set_no": 999,
        "meta_rev_at_epoch": 416,
        "meta_bstar": -0.00048146806,
        "meta_mean_motion_dot": -0.00028483,
        "meta_mean_motion_ddot": 0,
        "tle_line1": "1 66615U 25270AD  25346.25001157 -.00028483  00000+0 -48147-3 0  9994",
        "tle_line2": "2 66615  42.9998 195.4758 0001719 261.4291 318.6959 15.50577084  4163"
      },
      "geometry": {
        "type": "Point",
        "coordinates": [
          -96.23196897589483,
          41.278569464108564
        ]
      }
    },
    {
      "type": "Feature",
      "properties": {
        "norad_id": 66616,
        "name": "STARLINK-35391",
        "group": "last-30-days",
        "lat": 42.051834207926404,
        "lon": -91.17204626372859,
        "alt_km": 409.6422416409705,
        "timestamp": "2025-12-12T14:39:16.772012+00:00",
        "meta_object_name": "STARLINK-35391",
        "meta_object_id": "2025-270AE",
        "meta_epoch": "2025-12-12T06:00:00.999648",
        "meta_mean_motion": 15.50626697,
        "meta_eccentricity": 0.00018859,
        "meta_inclination": 42.9998,
        "meta_ra_of_asc_node": 195.4664,
        "meta_arg_of_pericenter": 275.1143,
        "meta_mean_anomaly": 308.8341,
        "meta_ephemeris_type": 0,
        "meta_classification_type": "U",
        "meta_norad_cat_id": 66616,
        "meta_element_set_no": 999,
        "meta_rev_at_epoch": 443,
        "meta_bstar": -0.0016693437,
        "meta_mean_motion_dot": -0.00097236,
        "meta_mean_motion_ddot": 0,
        "tle_line1": "1 66616U 25270AE  25346.25001157 -.00097236  00000+0 -16693-2 0  9997",
        "tle_line2": "2 66616  42.9998 195.4664 0001885 275.1143 308.8341 15.50626697  4433"
      },
      "geometry": {
        "type": "Point",
        "coordinates": [
          -91.17204626372859,
          42.051834207926404
        ]
      }
    },
    {
      "type": "Feature",
      "properties": {
        "norad_id": 66617,
        "name": "STARLINK-35940",
        "group": "last-30-days",
        "lat": 53.066394253213105,
        "lon": -86.3481929993165,
        "alt_km": 407.5913888515597,
        "timestamp": "2025-12-12T14:39:16.772022+00:00",
        "meta_object_name": "STARLINK-35940",
        "meta_object_id": "2025-271A",
        "meta_epoch": "2025-12-12T06:00:00.999648",
        "meta_mean_motion": 15.51872519,
        "meta_eccentricity": 0.0001171,
        "meta_inclination": 53.16,
        "meta_ra_of_asc_node": 189.5799,
        "meta_arg_of_pericenter": 83.6473,
        "meta_mean_anomaly": 149.0606,
        "meta_ephemeris_type": 0,
        "meta_classification_type": "U",
        "meta_norad_cat_id": 66617,
        "meta_element_set_no": 999,
        "meta_rev_at_epoch": 416,
        "meta_bstar": -0.033913262,
        "meta_mean_motion_dot": -0.0183031,
        "meta_mean_motion_ddot": 0,
        "tle_line1": "1 66617U 25271A   25346.25001157 -.01830310  00000+0 -33913-1 0  9991",
        "tle_line2": "2 66617  53.1600 189.5799 0001171  83.6473 149.0606 15.51872519  4163"
      },
      "geometry": {
        "type": "Point",
        "coordinates": [
          -86.3481929993165,
          53.066394253213105
        ]
      }
    },
    {
      "type": "Feature",
      "properties": {
        "norad_id": 66618,
        "name": "STARLINK-35970",
        "group": "last-30-days",
        "lat": 30.309515401029994,
        "lon": -18.256833306362658,
        "alt_km": 411.3472469630542,
        "timestamp": "2025-12-12T14:39:16.772032+00:00",
        "meta_object_name": "STARLINK-35970",
        "meta_object_id": "2025-271B",
        "meta_epoch": "2025-12-12T06:00:00.999648",
        "meta_mean_motion": 15.51868614,
        "meta_eccentricity": 0.00010568,
        "meta_inclination": 53.1592,
        "meta_ra_of_asc_node": 189.4669,
        "meta_arg_of_pericenter": 93.8983,
        "meta_mean_anomaly": 192.1296,
        "meta_ephemeris_type": 0,
        "meta_classification_type": "U",
        "meta_norad_cat_id": 66618,
        "meta_element_set_no": 999,
        "meta_rev_at_epoch": 416,
        "meta_bstar": -0.033449891,
        "meta_mean_motion_dot": -0.01807846,
        "meta_mean_motion_ddot": 0,
        "tle_line1": "1 66618U 25271B   25346.25001157 -.01807846  00000+0 -33450-1 0  9996",
        "tle_line2": "2 66618  53.1592 189.4669 0001056  93.8983 192.1296 15.51868614  4165"
      },
      "geometry": {
        "type": "Point",
        "coordinates": [
          -18.256833306362658,
          30.309515401029994
        ]
      }
    }
  ]
}